[{"OBJECT_NAME":"KUIPER-00156","OBJECT_ID":"2025-217P","EPOCH":"2026-03-09T04:41:39.796800","MEAN_MOTION":14.79924864,"ECCENTRICITY":8.23e-5,"INCLINATION":51.9039,"RA_OF_ASC_NODE":27.808,"ARG_OF_PERICENTER":97.2026,"MEAN_ANOMALY":262.903,"EPHEMERIS_TYPE":0,"CLASSIFICATION_TYPE":"U","NORAD_CAT_ID":65775,"ELEMENT_SET_NO":999,"REV_AT_EPOCH":2504,"BSTAR":0.00041878819,"MEAN_MOTION_DOT":2.972e-5,"MEAN_MOTION_DDOT":0},{"OBJECT_NAME":"FENGYUN 1C DEB","OBJECT_ID":"1999-025HZ","EPOCH":"2026-03-09T16:41:13.331616","MEAN_MOTION":14.78396279,"ECCENTRICITY":0.00151144,"INCLINATION":99.0743,"RA_OF_ASC_NODE":108.3738,"ARG_OF_PERICENTER":297.9411,"MEAN_ANOMALY":189.0746,"EPHEMERIS_TYPE":0,"CLASSIFICATION_TYPE":"U","NORAD_CAT_ID":29927,"ELEMENT_SET_NO":999,"REV_AT_EPOCH":99930,"BSTAR":0.002279364,"MEAN_MOTION_DOT":0.00016605,"MEAN_MOTION_DDOT":0}]
